CCSDS_OMM_VERS = 2.0
CREATION_DATE  = 
ORIGINATOR     = 

OBJECT_NAME    = STARLINK-35061
OBJECT_ID      = 2025-243Q
CENTER_NAME    = EARTH
REF_FRAME      = TEME
TIME_SYSTEM    = UTC
MEAN_ELEMENT_THEORY = SGP/SGP4

EPOCH          = 2025-11-21T16:00:05.000256
MEAN_MOTION    = 15.48987273
ECCENTRICITY   = .0000945
INCLINATION    = 53.1598
RA_OF_ASC_NODE = 27.5777
ARG_OF_PERICENTER = 59.9992
MEAN_ANOMALY   = 60.3039

EPHEMERIS_TYPE = 0
CLASSIFICATION_TYPE = U
NORAD_CAT_ID   = 66191
ELEMENT_SET_NO = 999
REV_AT_EPOCH   = 524
BSTAR          = -.43533E-1
MEAN_MOTION_DOT = -.212238E-1
MEAN_MOTION_DDOT = 0

CCSDS_OMM_VERS = 2.0
CREATION_DATE  = 
ORIGINATOR     = 

OBJECT_NAME    = STARLINK-34937
OBJECT_ID      = 2025-243R
CENTER_NAME    = EARTH
REF_FRAME      = TEME
TIME_SYSTEM    = UTC
MEAN_ELEMENT_THEORY = SGP/SGP4

EPOCH          = 2025-11-21T16:00:05.000256
MEAN_MOTION    = 15.47826297
ECCENTRICITY   = .0001354
INCLINATION    = 53.1599
RA_OF_ASC_NODE = 27.5836
ARG_OF_PERICENTER = 66.9398
MEAN_ANOMALY   = 50.7105

EPHEMERIS_TYPE = 0
CLASSIFICATION_TYPE = U
NORAD_CAT_ID   = 66192
ELEMENT_SET_NO = 999
REV_AT_EPOCH   = 498
BSTAR          = -.43405E-1
MEAN_MOTION_DOT = -.2041385E-1
MEAN_MOTION_DDOT = 0

CCSDS_OMM_VERS = 2.0
CREATION_DATE  = 
ORIGINATOR     = 

OBJECT_NAME    = STARLINK-35197
OBJECT_ID      = 2025-243S
CENTER_NAME    = EARTH
REF_FRAME      = TEME
TIME_SYSTEM    = UTC
MEAN_ELEMENT_THEORY = SGP/SGP4

EPOCH          = 2025-11-21T16:00:05.000256
MEAN_MOTION    = 15.49237120
ECCENTRICITY   = .000105
INCLINATION    = 53.1600
RA_OF_ASC_NODE = 27.5853
ARG_OF_PERICENTER = 71.0875
MEAN_ANOMALY   = 45.5628

EPHEMERIS_TYPE = 0
CLASSIFICATION_TYPE = U
NORAD_CAT_ID   = 66193
ELEMENT_SET_NO = 999
REV_AT_EPOCH   = 519
BSTAR          = .16744E-2
MEAN_MOTION_DOT = .93562E-3
MEAN_MOTION_DDOT = 0

CCSDS_OMM_VERS = 2.0
CREATION_DATE  = 
ORIGINATOR     = 

OBJECT_NAME    = STARLINK-35374
OBJECT_ID      = 2025-243T
CENTER_NAME    = EARTH
REF_FRAME      = TEME
TIME_SYSTEM    = UTC
MEAN_ELEMENT_THEORY = SGP/SGP4

EPOCH          = 2025-11-21T16:00:05.000256
MEAN_MOTION    = 15.49235370
ECCENTRICITY   = .0001032
INCLINATION    = 53.1599
RA_OF_ASC_NODE = 27.5894
ARG_OF_PERICENTER = 79.5310
MEAN_ANOMALY   = 35.2026

EPHEMERIS_TYPE = 0
CLASSIFICATION_TYPE = U
NORAD_CAT_ID   = 66194
ELEMENT_SET_NO = 999
REV_AT_EPOCH   = 519
BSTAR          = .17005E-2
MEAN_MOTION_DOT = .95039E-3
MEAN_MOTION_DDOT = 0

CCSDS_OMM_VERS = 2.0
CREATION_DATE  = 
ORIGINATOR     = 

OBJECT_NAME    = STARLINK-34813
OBJECT_ID      = 2025-243U
CENTER_NAME    = EARTH
REF_FRAME      = TEME
TIME_SYSTEM    = UTC
MEAN_ELEMENT_THEORY = SGP/SGP4

EPOCH          = 2025-11-21T16:00:05.000256
MEAN_MOTION    = 15.49235039
ECCENTRICITY   = .000102
INCLINATION    = 53.1599
RA_OF_ASC_NODE = 27.5938
ARG_OF_PERICENTER = 78.0794
MEAN_ANOMALY   = 34.7382

EPHEMERIS_TYPE = 0
CLASSIFICATION_TYPE = U
NORAD_CAT_ID   = 66195
ELEMENT_SET_NO = 999
REV_AT_EPOCH   = 519
BSTAR          = .17177E-2
MEAN_MOTION_DOT = .96014E-3
MEAN_MOTION_DDOT = 0

CCSDS_OMM_VERS = 2.0
CREATION_DATE  = 
ORIGINATOR     = 

OBJECT_NAME    = STARLINK-35409
OBJECT_ID      = 2025-243V
CENTER_NAME    = EARTH
REF_FRAME      = TEME
TIME_SYSTEM    = UTC
MEAN_ELEMENT_THEORY = SGP/SGP4

EPOCH          = 2025-11-21T16:00:05.000256
MEAN_MOTION    = 15.49229179
ECCENTRICITY   = .0001185
INCLINATION    = 53.1599
RA_OF_ASC_NODE = 27.5977
ARG_OF_PERICENTER = 73.6713
MEAN_ANOMALY   = 37.2240

EPHEMERIS_TYPE = 0
CLASSIFICATION_TYPE = U
NORAD_CAT_ID   = 66196
ELEMENT_SET_NO = 999
REV_AT_EPOCH   = 519
BSTAR          = .19623E-2
MEAN_MOTION_DOT = .109927E-2
MEAN_MOTION_DDOT = 0

CCSDS_OMM_VERS = 2.0
CREATION_DATE  = 
ORIGINATOR     = 

OBJECT_NAME    = STARLINK-35518
OBJECT_ID      = 2025-243X
CENTER_NAME    = EARTH
REF_FRAME      = TEME
TIME_SYSTEM    = UTC
MEAN_ELEMENT_THEORY = SGP/SGP4

EPOCH          = 2025-11-21T16:00:05.000256
MEAN_MOTION    = 15.49232500
ECCENTRICITY   = .0000974
INCLINATION    = 53.1599
RA_OF_ASC_NODE = 27.6058
ARG_OF_PERICENTER = 72.2641
MEAN_ANOMALY   = 34.8053

EPHEMERIS_TYPE = 0
CLASSIFICATION_TYPE = U
NORAD_CAT_ID   = 66197
ELEMENT_SET_NO = 999
REV_AT_EPOCH   = 519
BSTAR          = .17557E-2
MEAN_MOTION_DOT = .98167E-3
MEAN_MOTION_DDOT = 0

CCSDS_OMM_VERS = 2.0
CREATION_DATE  = 
ORIGINATOR     = 

OBJECT_NAME    = STARLINK-35259
OBJECT_ID      = 2025-243W
CENTER_NAME    = EARTH
REF_FRAME      = TEME
TIME_SYSTEM    = UTC
MEAN_ELEMENT_THEORY = SGP/SGP4

EPOCH          = 2025-11-21T16:00:05.000256
MEAN_MOTION    = 15.44973588
ECCENTRICITY   = .000128
INCLINATION    = 53.1602
RA_OF_ASC_NODE = 27.5394
ARG_OF_PERICENTER = 62.1261
MEAN_ANOMALY   = 75.7642

EPHEMERIS_TYPE = 0
CLASSIFICATION_TYPE = U
NORAD_CAT_ID   = 66198
ELEMENT_SET_NO = 999
REV_AT_EPOCH   = 519
BSTAR          = -.47187E-1
MEAN_MOTION_DOT = -.201293E-1
MEAN_MOTION_DDOT = 0

CCSDS_OMM_VERS = 2.0
CREATION_DATE  = 
ORIGINATOR     = 

OBJECT_NAME    = STARLINK-35509
OBJECT_ID      = 2025-243Y
CENTER_NAME    = EARTH
REF_FRAME      = TEME
TIME_SYSTEM    = UTC
MEAN_ELEMENT_THEORY = SGP/SGP4

EPOCH          = 2025-11-21T16:00:05.000256
MEAN_MOTION    = 15.49235913
ECCENTRICITY   = .0001147
INCLINATION    = 53.1603
RA_OF_ASC_NODE = 27.5210
ARG_OF_PERICENTER = 84.8572
MEAN_ANOMALY   = 62.4682

EPHEMERIS_TYPE = 0
CLASSIFICATION_TYPE = U
NORAD_CAT_ID   = 66199
ELEMENT_SET_NO = 999
REV_AT_EPOCH   = 519
BSTAR          = .16244E-2
MEAN_MOTION_DOT = .90714E-3
MEAN_MOTION_DDOT = 0

CCSDS_OMM_VERS = 2.0
CREATION_DATE  = 
ORIGINATOR     = 

OBJECT_NAME    = STARLINK-35551
OBJECT_ID      = 2025-243Z
CENTER_NAME    = EARTH
REF_FRAME      = TEME
TIME_SYSTEM    = UTC
MEAN_ELEMENT_THEORY = SGP/SGP4

EPOCH          = 2025-11-21T16:00:05.000256
MEAN_MOTION    = 15.49237367
ECCENTRICITY   = .0001025
INCLINATION    = 53.1603
RA_OF_ASC_NODE = 27.5289
ARG_OF_PERICENTER = 72.0482
MEAN_ANOMALY   = 71.4402

EPHEMERIS_TYPE = 0
CLASSIFICATION_TYPE = U
NORAD_CAT_ID   = 66200
ELEMENT_SET_NO = 999
REV_AT_EPOCH   = 519
BSTAR          = .16285E-2
MEAN_MOTION_DOT = .90952E-3
MEAN_MOTION_DDOT = 0

CCSDS_OMM_VERS = 2.0
CREATION_DATE  = 
ORIGINATOR     = 

OBJECT_NAME    = STARLINK-35543
OBJECT_ID      = 2025-243AA
CENTER_NAME    = EARTH
REF_FRAME      = TEME
TIME_SYSTEM    = UTC
MEAN_ELEMENT_THEORY = SGP/SGP4

EPOCH          = 2025-11-21T16:00:05.000256
MEAN_MOTION    = 15.49233364
ECCENTRICITY   = .0001092
INCLINATION    = 53.1604
RA_OF_ASC_NODE = 27.5324
ARG_OF_PERICENTER = 75.1872
MEAN_ANOMALY   = 66.3865

EPHEMERIS_TYPE = 0
CLASSIFICATION_TYPE = U
NORAD_CAT_ID   = 66201
ELEMENT_SET_NO = 999
REV_AT_EPOCH   = 525
BSTAR          = .17373E-2
MEAN_MOTION_DOT = .97124E-3
MEAN_MOTION_DDOT = 0

CCSDS_OMM_VERS = 2.0
CREATION_DATE  = 
ORIGINATOR     = 

OBJECT_NAME    = STARLINK-35534
OBJECT_ID      = 2025-243AB
CENTER_NAME    = EARTH
REF_FRAME      = TEME
TIME_SYSTEM    = UTC
MEAN_ELEMENT_THEORY = SGP/SGP4

EPOCH          = 2025-11-21T16:00:05.000256
MEAN_MOTION    = 15.49233897
ECCENTRICITY   = .0001149
INCLINATION    = 53.1603
RA_OF_ASC_NODE = 27.5366
ARG_OF_PERICENTER = 72.3108
MEAN_ANOMALY   = 67.3465

EPHEMERIS_TYPE = 0
CLASSIFICATION_TYPE = U
NORAD_CAT_ID   = 66202
ELEMENT_SET_NO = 999
REV_AT_EPOCH   = 519
BSTAR          = .17109E-2
MEAN_MOTION_DOT = .95625E-3
MEAN_MOTION_DDOT = 0

