STARLINK-35061          
1 66191U 25243Q   25325.66672454 -.02122380  00000+0 -43533-1 0  9994
2 66191  53.1598  27.5777 0000945  59.9992  60.3039 15.48987273  5248
STARLINK-34937          
1 66192U 25243R   25325.66672454 -.02041385  00000+0 -43405-1 0  9998
2 66192  53.1599  27.5836 0001354  66.9398  50.7105 15.47826297  4983
STARLINK-35197          
1 66193U 25243S   25325.66672454  .00093562  00000+0  16744-2 0  9996
2 66193  53.1600  27.5853 0001050  71.0875  45.5628 15.49237120  5195
STARLINK-35374          
1 66194U 25243T   25325.66672454  .00095039  00000+0  17005-2 0  9999
2 66194  53.1599  27.5894 0001032  79.5310  35.2026 15.49235370  5198
STARLINK-34813          
1 66195U 25243U   25325.66672454  .00096014  00000+0  17177-2 0  9994
2 66195  53.1599  27.5938 0001020  78.0794  34.7382 15.49235039  5196
STARLINK-35409          
1 66196U 25243V   25325.66672454  .00109927  00000+0  19623-2 0  9991
2 66196  53.1599  27.5977 0001185  73.6713  37.2240 15.49229179  5193
STARLINK-35518          
1 66197U 25243X   25325.66672454  .00098167  00000+0  17557-2 0  9999
2 66197  53.1599  27.6058 0000974  72.2641  34.8053 15.49232500  5192
STARLINK-35259          
1 66198U 25243W   25325.66672454 -.02012930  00000+0 -47187-1 0  9999
2 66198  53.1602  27.5394 0001280  62.1261  75.7642 15.44973588  5198
STARLINK-35509          
1 66199U 25243Y   25325.66672454  .00090714  00000+0  16244-2 0  9993
2 66199  53.1603  27.5210 0001147  84.8572  62.4682 15.49235913  5190
STARLINK-35551          
1 66200U 25243Z   25325.66672454  .00090952  00000+0  16285-2 0  9995
2 66200  53.1603  27.5289 0001025  72.0482  71.4402 15.49237367  5198
STARLINK-35543          
1 66201U 25243AA  25325.66672454  .00097124  00000+0  17373-2 0  9993
2 66201  53.1604  27.5324 0001092  75.1872  66.3865 15.49233364  5257
STARLINK-35534          
1 66202U 25243AB  25325.66672454  .00095625  00000+0  17109-2 0  9995
2 66202  53.1603  27.5366 0001149  72.3108  67.3465 15.49233897  5198
